ALSAT 1                 
1 27559U 02054A   12015.06207107  .00000467  00000-0  85955-4 0  2964
2 27559  97.8099 231.5131 0022302 227.2355 132.6971 14.69795877488049
NIGERIASAT 1            
1 27941U 03042C   12015.14367375  .00000365  00000-0  56293-4 0  3860
2 27941  97.8368 228.2124 0052417 185.4089 174.6570 14.78309970443594
UK-DMC                  
1 27942U 03042D   12015.13806984  .00000535  00000-0  82163-4 0  3813
2 27942  97.8272 232.3898 0066601  23.1636 337.2532 14.76088256443874
BILSAT 1                
1 27943U 03042E   12015.15778856  .00000220  00000-0  51390-4 0  2146
2 27943  97.8183 221.9466 0012440  43.0859 317.1309 14.63152308443258
BEIJING 1               
1 28890U 05043A   12015.13893773  .00000151  00000-0  40404-4 0  1017
2 28890  97.9231 246.9766 0014286 271.6896  88.2668 14.60276208331360
HJ-1A                   
1 33320U 08041A   12015.22003773  .00000414  00000-0  67362-4 0  7082
2 33320  97.8836  87.9471 0023362 290.8519  69.0215 14.75927103180797
HJ-1B                   
1 33321U 08041B   12015.11548447  .00000784  00000-0  11998-3 0  7648
2 33321  97.8866  88.0554 0041676 303.6389  56.0849 14.75967792180765
YAOGAN 4                
1 33446U 08061A   12015.16337177  .00000163  00000-0  31884-4 0  4677
2 33446  97.8095  84.1458 0016450 234.7826 125.1888 14.74450335168057
YAOGAN 5                
1 33456U 08064A   12015.15575419  .00007421  00000-0  23355-3 0  4669
2 33456  97.2752  88.7722 0009057 295.5140 148.2896 15.33192628171845
DEIMOS-1                
1 35681U 09041A   12015.16504026  .00000290  00000-0  56983-4 0  7343
2 35681  98.0487 276.4417 0001105 109.2472 250.8868 14.69644903132115
UK-DMC 2                
1 35683U 09041C   12015.07018040  .00000299  00000-0  58440-4 0  7564
2 35683  98.0506 275.3878 0000974  74.2232 285.9087 14.69632871132029
